ONEWEB-0589             
1 54655U 22166P   24363.41744635  .00000018  00000+0  12296-4 0  9996
2 54655  87.9295 350.7321 0002493  70.9972 289.1432 13.21824663100769
ONEWEB-0590             
1 54656U 22166Q   24363.44110251  .00000025  00000+0  29029-4 0  9991
2 54656  87.9281 350.7309 0001987  89.2120 270.9242 13.21824714100759
ONEWEB-0591             
1 54657U 22166R   24363.37802610  .00000068  00000+0  13406-3 0  9999
2 54657  87.9295 350.7414 0001956  84.6963 275.4394 13.21827348100778
ONEWEB-0592             
1 54658U 22166S   24363.38117907  .00000104  00000+0  21935-3 0  9996
2 54658  87.9291 350.6993 0001988  85.9425 274.1936 13.21824871100651
ONEWEB-0593             
1 54659U 22166T   24363.40483064  .00000125  00000+0  27141-3 0  9998
2 54659  87.9296 350.7268 0001975  82.7919 277.3439 13.21824902100762
ONEWEB-0594             
1 54660U 22166U   24363.42375867  .00000026  00000+0  31660-4 0  9995
2 54660  87.9299 350.7299 0001731  85.6397 274.4934 13.21825301100787
ONEWEB-0595             
1 54661U 22166V   24363.02320139  .00000003  00000+0 -23337-4 0  9992
2 54661  87.9297 350.7920 0001770  92.3800 267.7536 13.21825414100704
ONEWEB-0596             
1 54662U 22166W   24363.37486432  .00000045  00000+0  76830-4 0  9991
2 54662  87.9299 350.7315 0002061  86.5902 273.5467 13.21825327100753
